{
    "links": {
        "self": "http://www.neowsapp.com/rest/v1/neo/3744325?api_key=iIulBulltgU6a56xZRHN4H3l9WmuAYTsLGpBGhQ2"
    },
    "id": "3744325",
    "neo_reference_id": "3744325",
    "name": "(2016 CE248)",
    "designation": "2016 CE248",
    "nasa_jpl_url": "http://ssd.jpl.nasa.gov/sbdb.cgi?sstr=3744325",
    "absolute_magnitude_h": 23.4,
    "estimated_diameter": {
        "kilometers": {
            "estimated_diameter_min": 0.0555334912,
            "estimated_diameter_max": 0.1241766613
        },
        "meters": {
            "estimated_diameter_min": 55.5334911581,
            "estimated_diameter_max": 124.1766612574
        },
        "miles": {
            "estimated_diameter_min": 0.0345069009,
            "estimated_diameter_max": 0.0771597762
        },
        "feet": {
            "estimated_diameter_min": 182.1964991311,
            "estimated_diameter_max": 407.4037573197
        }
    },
    "is_potentially_hazardous_asteroid": false,
    "close_approach_data": [
        {
            "close_approach_date": "2016-02-07",
            "close_approach_date_full": "2016-Feb-07 00:27",
            "epoch_date_close_approach": 1454804820000,
            "relative_velocity": {
                "kilometers_per_second": "19.6489463506",
                "kilometers_per_hour": "70736.206862079",
                "miles_per_hour": "43952.7280916068"
            },
            "miss_distance": {
                "astronomical": "0.1011852978",
                "lunar": "39.3610808442",
                "kilometers": "15137105.026195686",
                "miles": "9405760.9123490268"
            },
            "orbiting_body": "Earth"
        }
    ],
    "orbital_data": {
        "orbit_id": "7",
        "orbit_determination_date": "2017-04-06 08:28:11",
        "first_observation_date": "2016-02-14",
        "last_observation_date": "2016-03-02",
        "data_arc_in_days": 17,
        "observations_used": 14,
        "orbit_uncertainty": "8",
        "minimum_orbit_intersection": ".0843249",
        "jupiter_tisserand_invariant": "3.842",
        "epoch_osculation": "2457434.5",
        "eccentricity": ".4511072835659712",
        "semi_major_axis": "1.743741662203732",
        "inclination": "33.8870165473132",
        "ascending_node_longitude": "142.3790042543522",
        "orbital_period": "841.0496664136739",
        "perihelion_distance": ".9571270977261951",
        "perihelion_argument": "309.2478463053865",
        "aphelion_distance": "2.530356226681268",
        "perihelion_time": "2457384.346081995056",
        "mean_anomaly": "21.46771017551205",
        "mean_motion": ".4280365528650391",
        "equinox": "J2000",
        "orbit_class": {
            "orbit_class_type": "APO",
            "orbit_class_description": "Near-Earth asteroid orbits which cross the Earth’s orbit similar to that of 1862 Apollo",
            "orbit_class_range": "a (semi-major axis) > 1.0 AU; q (perihelion) < 1.017 AU"
        }
    },
    "is_sentry_object": false
}